{
"type": "FeatureCollection",
"name": "aoi_zagreb",
"crs": { "type": "name", "properties": { "name": "urn:ogc:def:crs:OGC:1.3:CRS84" } },
"features": [
{ "type": "Feature", "properties": { "GISCO_ID": "HR_01333", "CNTR_CODE": "HR", "LAU_NAME": "Grad Zagreb", "POP_2024": 767131, "POP_DENS_2024": 1196.0782538599999, "AREA_KM2": 641.37191485999995, "YEAR": 2024 }, "geometry": { "type": "Polygon", "coordinates": [ [ [ 16.154813500000046, 45.968773999000064 ], [ 16.156579609000062, 45.961230877000048 ], [ 16.165026594000039, 45.955401167000048 ], [ 16.167571502000044, 45.945467693000069 ], [ 16.17168928500007, 45.941402505000042 ], [ 16.173809387000063, 45.91812242900005 ], [ 16.183715457000062, 45.907653943000071 ], [ 16.183388687000047, 45.899267025000029 ], [ 16.179586083000061, 45.892644682000025 ], [ 16.197804919000077, 45.892270529000029 ], [ 16.215121415000056, 45.870679313000039 ], [ 16.226776360000031, 45.861723970000071 ], [ 16.22681321400006, 45.858357313000056 ], [ 16.221101797000074, 45.853474128000073 ], [ 16.22230053100003, 45.850239796000039 ], [ 16.227712342000075, 45.847065093000026 ], [ 16.229294878000076, 45.841464148000057 ], [ 16.239583500000037, 45.83745699900004 ], [ 16.23948850000005, 45.837071499000047 ], [ 16.217511027000057, 45.83836195300006 ], [ 16.205427064000048, 45.82895123600008 ], [ 16.200517856000033, 45.819224076000069 ], [ 16.199818, 45.796415499000034 ], [ 16.198297798000056, 45.77815739600004 ], [ 16.161882179000031, 45.793430972000067 ], [ 16.131595574000073, 45.800345660000062 ], [ 16.123613, 45.787540499000045 ], [ 16.103926337000075, 45.790470190000065 ], [ 16.099737439000023, 45.784910937000063 ], [ 16.082707976000052, 45.778027917000031 ], [ 16.059409152000057, 45.760500762000049 ], [ 16.050243111000043, 45.75838069200006 ], [ 16.039229803000069, 45.760989156000051 ], [ 16.036884365000049, 45.755543269000043 ], [ 16.02768848200003, 45.754707968000048 ], [ 16.021005521000063, 45.749490810000054 ], [ 16.017010050000067, 45.74403243900008 ], [ 16.017132312000058, 45.72071618800004 ], [ 16.000663942000074, 45.719370213000047 ], [ 15.987579079000056, 45.713779861000035 ], [ 15.980650043000026, 45.70500935900003 ], [ 15.966936197000052, 45.696001742000078 ], [ 15.965307923000069, 45.670879772000035 ], [ 15.956217766000066, 45.656843858000059 ], [ 15.949211754000032, 45.651691283000048 ], [ 15.950154085000065, 45.638414453000053 ], [ 15.946687255000029, 45.630999999000039 ], [ 15.940297465000071, 45.630405549000045 ], [ 15.919943500000045, 45.614237999000068 ], [ 15.899972865000052, 45.621582139000054 ], [ 15.906769650000058, 45.632733366000025 ], [ 15.894723052000074, 45.636941992000061 ], [ 15.873997897000038, 45.655976752000072 ], [ 15.864280165000025, 45.656883696000079 ], [ 15.86033072500004, 45.66096649900004 ], [ 15.852402472000051, 45.659940865000067 ], [ 15.829050500000051, 45.670654499000079 ], [ 15.818414591000078, 45.670768787000043 ], [ 15.812593697000068, 45.677838934000079 ], [ 15.777065, 45.68998749900004 ], [ 15.77404079300004, 45.70787794000006 ], [ 15.778294376000076, 45.713779861000035 ], [ 15.788094929000067, 45.732204760000059 ], [ 15.802471500000024, 45.736328499000081 ], [ 15.808401668000045, 45.737374334000037 ], [ 15.811096040000052, 45.730326021000053 ], [ 15.821118391000027, 45.724074870000038 ], [ 15.834633092000047, 45.727978448000044 ], [ 15.853843399000027, 45.717964215000052 ], [ 15.868750742000032, 45.728913481000063 ], [ 15.867664829000034, 45.73379327400005 ], [ 15.877020619000064, 45.738752717000068 ], [ 15.883736314000032, 45.749161250000043 ], [ 15.879578178000031, 45.755267214000071 ], [ 15.868748786000026, 45.757613420000041 ], [ 15.864345876000073, 45.764895572000057 ], [ 15.842238771000041, 45.765567601000043 ], [ 15.839697306000062, 45.771002827000075 ], [ 15.825547500000027, 45.775116999000034 ], [ 15.82321792700003, 45.779023574000064 ], [ 15.840036937000036, 45.790027499000075 ], [ 15.835873443000025, 45.793894952000073 ], [ 15.832411850000028, 45.81157427800008 ], [ 15.82331750000003, 45.82686299900007 ], [ 15.824186668000038, 45.839200403000063 ], [ 15.830525652000063, 45.841495139000074 ], [ 15.843636832000072, 45.840612646000068 ], [ 15.85249400500004, 45.852504062000037 ], [ 15.872864213000071, 45.855349225000055 ], [ 15.877423, 45.865318499000068 ], [ 15.885170963000064, 45.862975536000079 ], [ 15.890895207000028, 45.876205700000071 ], [ 15.906131416000051, 45.885515681000072 ], [ 15.93238847300006, 45.889407725000069 ], [ 15.946935167000049, 45.899641485000075 ], [ 15.956769, 45.901593999000056 ], [ 15.970368146000055, 45.908737961000043 ], [ 15.976207620000025, 45.915003976000037 ], [ 16.006247500000029, 45.92876749900006 ], [ 16.021005521000063, 45.93140425100006 ], [ 16.036519709000061, 45.939006568000025 ], [ 16.050431340000046, 45.937508926000078 ], [ 16.05212750000004, 45.943316499000048 ], [ 16.077225939000073, 45.955467877000046 ], [ 16.089729, 45.958579499000052 ], [ 16.096699151000053, 45.954190195000081 ], [ 16.108487733000061, 45.956502597000053 ], [ 16.116456078000056, 45.968621879000068 ], [ 16.133031051000046, 45.965078611000081 ], [ 16.154813500000046, 45.968773999000064 ] ] ] } }
]
}
